FENGYUN 1C DEB          
1 32114U 99025CRG 26061.11271568  .00019679  00000+0  25671-2 0  9996
2 32114  99.9264 201.4854 0042847 105.6634 254.9305 14.79947435669020
FENGYUN 1C DEB          
1 32117U 99025CRK 26062.05941379  .00002384  00000+0  10458-2 0  9999
2 32117  98.6032 110.7499 0027598 212.6978 147.2494 14.24351685959408
FENGYUN 1C DEB          
1 32119U 99025CRM 26053.92441677  .00001293  00000+0  83900-3 0  9994
2 32119  99.8841 287.5875 0084211 218.3364 141.1795 14.03028508947405
FENGYUN 1C DEB          
1 32123U 99025CRR 26062.98379183  .00001526  00000+0  26523-3 0  9994
2 32123  98.9487 242.4338 0160230  44.5535 104.9487 14.61819407725617
FENGYUN 1C DEB          
1 32125U 99025CRT 26059.20755894  .00015549  00000+0  19644-2 0  9999
2 32125  99.0689  53.2856 0170293  82.7011 279.3514 14.72222213716625
FENGYUN 1C DEB          
1 32126U 99025CRU 26062.89832050  .00001336  00000+0  14955-2 0  9998
2 32126  99.1068 298.0453 0281916  47.1071 315.3369 13.56961345628152
FENGYUN 1C DEB          
1 32128U 99025CRW 26057.35793955  .00001032  00000+0  42104-3 0  9996
2 32128  99.0194 107.0834 0396270  15.6820 345.6212 13.94450935640390
FENGYUN 1C DEB          
1 32129U 99025CRX 26061.80434516  .00009482  00000+0  36105-2 0  9997
2 32129  99.0598 188.3250 0070693 162.8000 353.1581 14.29717775953708
FENGYUN 1C DEB          
1 32130U 99025CRY 26062.29417710  .00001575  00000+0  51700-3 0  9994
2 32130  98.9113 236.7157 0083304  92.4345 268.6381 14.37850306973929
FENGYUN 1C DEB          
1 32133U 99025CSB 26061.28694816  .00000387  00000+0  20719-3 0  9995
2 32133  98.4361  63.5322 0034415 229.7409 130.0756 14.18150044961024
FENGYUN 1C DEB          
1 32134U 99025CSC 26062.48171707  .00003781  00000+0  12307-2 0  9992
2 32134  98.5961  68.6853 0259759  29.5472 121.9951 14.21878322962941
FENGYUN 1C DEB          
1 32136U 99025CSE 26047.43779428  .00002068  00000+0  67652-3 0  9997
2 32136  98.2693  48.1096 0066293 337.8454  21.9872 14.38278102660346
FENGYUN 1C DEB          
1 32137U 99025CSF 26060.15244553  .00019572  00000+0  17816-2 0  9992
2 32137  98.4457 196.7471 0181901 142.2182 219.1964 14.83392622678924
FENGYUN 1C DEB          
1 32141U 99025CSK 26061.96951784  .00000791  00000+0  51740-3 0  9996
2 32141  98.7477  66.3126 0073602 344.3892  15.5006 14.03714103960691
FENGYUN 1C DEB          
1 32143U 99025CSM 26061.16372822  .00000348  00000+0  18116-3 0  9998
2 32143  98.6087  40.6449 0102160 239.8863 119.2156 14.18059254970593
FENGYUN 1C DEB          
1 32150U 99025CSU 26059.89873411  .00000972  00000+0  17349-3 0  9993
2 32150  99.1871  96.2873 0169902 189.9903 169.7902 14.60894482988475
