[{"OBJECT_NAME":"FENGYUN 1C DEB","OBJECT_ID":"1999-025CRG","EPOCH":"2026-03-02T02:42:18.634752","MEAN_MOTION":14.79947435,"ECCENTRICITY":0.00428474,"INCLINATION":99.9264,"RA_OF_ASC_NODE":201.4854,"ARG_OF_PERICENTER":105.6634,"MEAN_ANOMALY":254.9305,"EPHEMERIS_TYPE":0,"CLASSIFICATION_TYPE":"U","NORAD_CAT_ID":32114,"ELEMENT_SET_NO":999,"REV_AT_EPOCH":66902,"BSTAR":0.0025671381,"MEAN_MOTION_DOT":0.00019679,"MEAN_MOTION_DDOT":0},{"OBJECT_NAME":"FENGYUN 1C DEB","OBJECT_ID":"1999-025CRK","EPOCH":"2026-03-03T01:25:33.351456","MEAN_MOTION":14.24351685,"ECCENTRICITY":0.00275989,"INCLINATION":98.6032,"RA_OF_ASC_NODE":110.7499,"ARG_OF_PERICENTER":212.6978,"MEAN_ANOMALY":147.2494,"EPHEMERIS_TYPE":0,"CLASSIFICATION_TYPE":"U","NORAD_CAT_ID":32117,"ELEMENT_SET_NO":999,"REV_AT_EPOCH":95940,"BSTAR":0.0010458459,"MEAN_MOTION_DOT":2.384e-5,"MEAN_MOTION_DDOT":0},{"OBJECT_NAME":"FENGYUN 1C DEB","OBJECT_ID":"1999-025CRM","EPOCH":"2026-02-22T22:11:09.608928","MEAN_MOTION":14.03028508,"ECCENTRICITY":0.0084211,"INCLINATION":99.8841,"RA_OF_ASC_NODE":287.5875,"ARG_OF_PERICENTER":218.3364,"MEAN_ANOMALY":141.1795,"EPHEMERIS_TYPE":0,"CLASSIFICATION_TYPE":"U","NORAD_CAT_ID":32119,"ELEMENT_SET_NO":999,"REV_AT_EPOCH":94740,"BSTAR":0.000839,"MEAN_MOTION_DOT":1.293e-5,"MEAN_MOTION_DDOT":0},{"OBJECT_NAME":"FENGYUN 1C DEB","OBJECT_ID":"1999-025CRR","EPOCH":"2026-03-03T23:36:39.614112","MEAN_MOTION":14.61819407,"ECCENTRICITY":0.016023,"INCLINATION":98.9487,"RA_OF_ASC_NODE":242.4338,"ARG_OF_PERICENTER":44.5535,"MEAN_ANOMALY":104.9487,"EPHEMERIS_TYPE":0,"CLASSIFICATION_TYPE":"U","NORAD_CAT_ID":32123,"ELEMENT_SET_NO":999,"REV_AT_EPOCH":72561,"BSTAR":0.00026523,"MEAN_MOTION_DOT":1.526e-5,"MEAN_MOTION_DDOT":0},{"OBJECT_NAME":"FENGYUN 1C DEB","OBJECT_ID":"1999-025CRT","EPOCH":"2026-02-28T04:58:53.092416","MEAN_MOTION":14.72222213,"ECCENTRICITY":0.0170293,"INCLINATION":99.0689,"RA_OF_ASC_NODE":53.2856,"ARG_OF_PERICENTER":82.7011,"MEAN_ANOMALY":279.3514,"EPHEMERIS_TYPE":0,"CLASSIFICATION_TYPE":"U","NORAD_CAT_ID":32125,"ELEMENT_SET_NO":999,"REV_AT_EPOCH":71662,"BSTAR":0.0019644,"MEAN_MOTION_DOT":0.00015549,"MEAN_MOTION_DDOT":0},{"OBJECT_NAME":"FENGYUN 1C DEB","OBJECT_ID":"1999-025CRU","EPOCH":"2026-03-03T21:33:34.891200","MEAN_MOTION":13.56961345,"ECCENTRICITY":0.0281916,"INCLINATION":99.1068,"RA_OF_ASC_NODE":298.0453,"ARG_OF_PERICENTER":47.1071,"MEAN_ANOMALY":315.3369,"EPHEMERIS_TYPE":0,"CLASSIFICATION_TYPE":"U","NORAD_CAT_ID":32126,"ELEMENT_SET_NO":999,"REV_AT_EPOCH":62815,"BSTAR":0.0014955,"MEAN_MOTION_DOT":1.336e-5,"MEAN_MOTION_DDOT":0},{"OBJECT_NAME":"FENGYUN 1C DEB","OBJECT_ID":"1999-025CRW","EPOCH":"2026-02-26T08:35:25.977120","MEAN_MOTION":13.94450935,"ECCENTRICITY":0.039627,"INCLINATION":99.0194,"RA_OF_ASC_NODE":107.0834,"ARG_OF_PERICENTER":15.682,"MEAN_ANOMALY":345.6212,"EPHEMERIS_TYPE":0,"CLASSIFICATION_TYPE":"U","NORAD_CAT_ID":32128,"ELEMENT_SET_NO":999,"REV_AT_EPOCH":64039,"BSTAR":0.00042104,"MEAN_MOTION_DOT":1.032e-5,"MEAN_MOTION_DDOT":0},{"OBJECT_NAME":"FENGYUN 1C DEB","OBJECT_ID":"1999-025CRX","EPOCH":"2026-03-02T19:18:15.421824","MEAN_MOTION":14.29717775,"ECCENTRICITY":0.00706933,"INCLINATION":99.0598,"RA_OF_ASC_NODE":188.325,"ARG_OF_PERICENTER":162.8,"MEAN_ANOMALY":353.1581,"EPHEMERIS_TYPE":0,"CLASSIFICATION_TYPE":"U","NORAD_CAT_ID":32129,"ELEMENT_SET_NO":999,"REV_AT_EPOCH":95370,"BSTAR":0.0036105375,"MEAN_MOTION_DOT":9.482e-5,"MEAN_MOTION_DDOT":0},{"OBJECT_NAME":"FENGYUN 1C DEB","OBJECT_ID":"1999-025CRY","EPOCH":"2026-03-03T07:03:36.901440","MEAN_MOTION":14.37850306,"ECCENTRICITY":0.00833046,"INCLINATION":98.9113,"RA_OF_ASC_NODE":236.7157,"ARG_OF_PERICENTER":92.4345,"MEAN_ANOMALY":268.6381,"EPHEMERIS_TYPE":0,"CLASSIFICATION_TYPE":"U","NORAD_CAT_ID":32130,"ELEMENT_SET_NO":999,"REV_AT_EPOCH":97392,"BSTAR":0.00051700498,"MEAN_MOTION_DOT":1.575e-5,"MEAN_MOTION_DDOT":0},{"OBJECT_NAME":"FENGYUN 1C DEB","OBJECT_ID":"1999-025CSB","EPOCH":"2026-03-02T06:53:12.321024","MEAN_MOTION":14.18150044,"ECCENTRICITY":0.00344155,"INCLINATION":98.4361,"RA_OF_ASC_NODE":63.5322,"ARG_OF_PERICENTER":229.7409,"MEAN_ANOMALY":130.0756,"EPHEMERIS_TYPE":0,"CLASSIFICATION_TYPE":"U","NORAD_CAT_ID":32133,"ELEMENT_SET_NO":999,"REV_AT_EPOCH":96102,"BSTAR":0.00020719237,"MEAN_MOTION_DOT":3.87e-6,"MEAN_MOTION_DDOT":0},{"OBJECT_NAME":"FENGYUN 1C DEB","OBJECT_ID":"1999-025CSC","EPOCH":"2026-03-03T11:33:40.354848","MEAN_MOTION":14.21878322,"ECCENTRICITY":0.02597599,"INCLINATION":98.5961,"RA_OF_ASC_NODE":68.6853,"ARG_OF_PERICENTER":29.5472,"MEAN_ANOMALY":121.9951,"EPHEMERIS_TYPE":0,"CLASSIFICATION_TYPE":"U","NORAD_CAT_ID":32134,"ELEMENT_SET_NO":999,"REV_AT_EPOCH":96294,"BSTAR":0.0012306785,"MEAN_MOTION_DOT":3.781e-5,"MEAN_MOTION_DDOT":0},{"OBJECT_NAME":"FENGYUN 1C DEB","OBJECT_ID":"1999-025CSE","EPOCH":"2026-02-16T10:30:25.425792","MEAN_MOTION":14.38278102,"ECCENTRICITY":0.00662936,"INCLINATION":98.2693,"RA_OF_ASC_NODE":48.1096,"ARG_OF_PERICENTER":337.8454,"MEAN_ANOMALY":21.9872,"EPHEMERIS_TYPE":0,"CLASSIFICATION_TYPE":"U","NORAD_CAT_ID":32136,"ELEMENT_SET_NO":999,"REV_AT_EPOCH":66034,"BSTAR":0.00067652225,"MEAN_MOTION_DOT":2.068e-5,"MEAN_MOTION_DDOT":0},{"OBJECT_NAME":"FENGYUN 1C DEB","OBJECT_ID":"1999-025CSF","EPOCH":"2026-03-01T03:39:31.293792","MEAN_MOTION":14.83392622,"ECCENTRICITY":0.01819013,"INCLINATION":98.4457,"RA_OF_ASC_NODE":196.7471,"ARG_OF_PERICENTER":142.2182,"MEAN_ANOMALY":219.1964,"EPHEMERIS_TYPE":0,"CLASSIFICATION_TYPE":"U","NORAD_CAT_ID":32137,"ELEMENT_SET_NO":999,"REV_AT_EPOCH":67892,"BSTAR":0.0017815966,"MEAN_MOTION_DOT":0.00019572,"MEAN_MOTION_DDOT":0},{"OBJECT_NAME":"FENGYUN 1C DEB","OBJECT_ID":"1999-025CSK","EPOCH":"2026-03-02T23:16:06.341376","MEAN_MOTION":14.03714103,"ECCENTRICITY":0.0073602,"INCLINATION":98.7477,"RA_OF_ASC_NODE":66.3126,"ARG_OF_PERICENTER":344.3892,"MEAN_ANOMALY":15.5006,"EPHEMERIS_TYPE":0,"CLASSIFICATION_TYPE":"U","NORAD_CAT_ID":32141,"ELEMENT_SET_NO":999,"REV_AT_EPOCH":96069,"BSTAR":0.0005174,"MEAN_MOTION_DOT":7.91e-6,"MEAN_MOTION_DDOT":0},{"OBJECT_NAME":"FENGYUN 1C DEB","OBJECT_ID":"1999-025CSM","EPOCH":"2026-03-02T03:55:46.118208","MEAN_MOTION":14.18059254,"ECCENTRICITY":0.01021605,"INCLINATION":98.6087,"RA_OF_ASC_NODE":40.6449,"ARG_OF_PERICENTER":239.8863,"MEAN_ANOMALY":119.2156,"EPHEMERIS_TYPE":0,"CLASSIFICATION_TYPE":"U","NORAD_CAT_ID":32143,"ELEMENT_SET_NO":999,"REV_AT_EPOCH":97059,"BSTAR":0.00018115629,"MEAN_MOTION_DOT":3.48e-6,"MEAN_MOTION_DDOT":0},{"OBJECT_NAME":"FENGYUN 1C DEB","OBJECT_ID":"1999-025CSU","EPOCH":"2026-02-28T21:34:10.627104","MEAN_MOTION":14.60894482,"ECCENTRICITY":0.0169902,"INCLINATION":99.1871,"RA_OF_ASC_NODE":96.2873,"ARG_OF_PERICENTER":189.9903,"MEAN_ANOMALY":169.7902,"EPHEMERIS_TYPE":0,"CLASSIFICATION_TYPE":"U","NORAD_CAT_ID":32150,"ELEMENT_SET_NO":999,"REV_AT_EPOCH":98847,"BSTAR":0.00017349,"MEAN_MOTION_DOT":9.72e-6,"MEAN_MOTION_DDOT":0}]
